{
  "type": "FeatureCollection",
  "features": [
    {
      "type": "Feature",
      "properties": {
        "norad_id": 33412,
        "name": "COSMO-SKYMED 3",
        "group": "resource",
        "lat": 35.262917309681356,
        "lon": 18.152680359066323,
        "alt_km": 540.5674706393656,
        "timestamp": "2025-12-08T05:48:08.704260+00:00",
        "meta_object_name": "COSMO-SKYMED 3",
        "meta_object_id": "2008-054A",
        "meta_epoch": "2025-12-07T21:11:09.795264",
        "meta_mean_motion": 15.05281228,
        "meta_eccentricity": 0.00157832,
        "meta_inclination": 97.8456,
        "meta_ra_of_asc_node": 192.1928,
        "meta_arg_of_pericenter": 190.4841,
        "meta_mean_anomaly": 169.6058,
        "meta_ephemeris_type": 0,
        "meta_classification_type": "U",
        "meta_norad_cat_id": 33412,
        "meta_element_set_no": 999,
        "meta_rev_at_epoch": 92814,
        "meta_bstar": 0.00048252962,
        "meta_mean_motion_dot": 6.855e-05,
        "meta_mean_motion_ddot": 0,
        "tle_line1": "1 33412U 08054A   25341.88275226  .00006855  00000+0  48253-3 0  9993",
        "tle_line2": "2 33412  97.8456 192.1928 0015783 190.4841 169.6058 15.05281228928140"
      },
      "geometry": {
        "type": "Point",
        "coordinates": [
          18.152680359066323,
          35.262917309681356
        ]
      }
    },
    {
      "type": "Feature",
      "properties": {
        "norad_id": 33446,
        "name": "YAOGAN-4",
        "group": "resource",
        "lat": 47.3623945167566,
        "lon": 101.07799426137862,
        "alt_km": 625.5179158117062,
        "timestamp": "2025-12-08T05:48:08.704270+00:00",
        "meta_object_name": "YAOGAN-4",
        "meta_object_id": "2008-061A",
        "meta_epoch": "2025-12-07T19:29:28.070016",
        "meta_mean_motion": 14.82658842,
        "meta_eccentricity": 0.00140158,
        "meta_inclination": 97.9175,
        "meta_ra_of_asc_node": 271.9595,
        "meta_arg_of_pericenter": 340.0883,
        "meta_mean_anomaly": 19.9782,
        "meta_ephemeris_type": 0,
        "meta_classification_type": "U",
        "meta_norad_cat_id": 33446,
        "meta_element_set_no": 999,
        "meta_rev_at_epoch": 91730,
        "meta_bstar": 0.00033913084,
        "meta_mean_motion_dot": 2.684e-05,
        "meta_mean_motion_ddot": 0,
        "tle_line1": "1 33446U 08061A   25341.81213044  .00002684  00000+0  33913-3 0  9994",
        "tle_line2": "2 33446  97.9175 271.9595 0014015 340.0883  19.9782 14.82658842917309"
      },
      "geometry": {
        "type": "Point",
        "coordinates": [
          101.07799426137862,
          47.3623945167566
        ]
      }
    },
    {
      "type": "Feature",
      "properties": {
        "norad_id": 33492,
        "name": "GOSAT (IBUKI)",
        "group": "resource",
        "lat": 66.97412770701604,
        "lon": 71.38827045298969,
        "alt_km": 661.7446280843978,
        "timestamp": "2025-12-08T05:48:08.704281+00:00",
        "meta_object_name": "GOSAT (IBUKI)",
        "meta_object_id": "2009-002A",
        "meta_epoch": "2025-12-07T21:18:36.750240",
        "meta_mean_motion": 14.67539645,
        "meta_eccentricity": 9.79e-05,
        "meta_inclination": 98.077,
        "meta_ra_of_asc_node": 90.5588,
        "meta_arg_of_pericenter": 87.4854,
        "meta_mean_anomaly": 272.6463,
        "meta_ephemeris_type": 0,
        "meta_classification_type": "U",
        "meta_norad_cat_id": 33492,
        "meta_element_set_no": 999,
        "meta_rev_at_epoch": 90340,
        "meta_bstar": 0.00027722392,
        "meta_mean_motion_dot": 1.524e-05,
        "meta_mean_motion_ddot": 0,
        "tle_line1": "1 33492U 09002A   25341.88792535  .00001524  00000+0  27722-3 0  9998",
        "tle_line2": "2 33492  98.0770  90.5588 0000979  87.4854 272.6463 14.67539645903406"
      },
      "geometry": {
        "type": "Point",
        "coordinates": [
          71.38827045298969,
          66.97412770701604
        ]
      }
    },
    {
      "type": "Feature",
      "properties": {
        "norad_id": 35681,
        "name": "DEIMOS-1",
        "group": "resource",
        "lat": 26.29350431308168,
        "lon": 139.2140988773697,
        "alt_km": 643.5394137159919,
        "timestamp": "2025-12-08T05:48:08.704293+00:00",
        "meta_object_name": "DEIMOS-1",
        "meta_object_id": "2009-041A",
        "meta_epoch": "2025-12-07T23:10:11.004960",
        "meta_mean_motion": 14.74940888,
        "meta_eccentricity": 0.00027008,
        "meta_inclination": 97.7153,
        "meta_ra_of_asc_node": 142.7914,
        "meta_arg_of_pericenter": 89.5996,
        "meta_mean_anomaly": 270.5523,
        "meta_ephemeris_type": 0,
        "meta_classification_type": "U",
        "meta_norad_cat_id": 35681,
        "meta_element_set_no": 999,
        "meta_rev_at_epoch": 87869,
        "meta_bstar": 0.00018004868,
        "meta_mean_motion_dot": 1.162e-05,
        "meta_mean_motion_ddot": 0,
        "tle_line1": "1 35681U 09041A   25341.96540515  .00001162  00000+0  18005-3 0  9993",
        "tle_line2": "2 35681  97.7153 142.7914 0002700  89.5996 270.5523 14.74940888878695"
      },
      "geometry": {
        "type": "Point",
        "coordinates": [
          139.2140988773697,
          26.29350431308168
        ]
      }
    },
    {
      "type": "Feature",
      "properties": {
        "norad_id": 35682,
        "name": "DUBAISAT-1",
        "group": "resource",
        "lat": -32.59265112374702,
        "lon": 118.13285486798756,
        "alt_km": 645.7012312114039,
        "timestamp": "2025-12-08T05:48:08.704304+00:00",
        "meta_object_name": "DUBAISAT-1",
        "meta_object_id": "2009-041B",
        "meta_epoch": "2025-12-07T23:26:13.267680",
        "meta_mean_motion": 14.74582653,
        "meta_eccentricity": 0.00098433,
        "meta_inclination": 97.979,
        "meta_ra_of_asc_node": 112.7267,
        "meta_arg_of_pericenter": 331.0361,
        "meta_mean_anomaly": 29.03,
        "meta_ephemeris_type": 0,
        "meta_classification_type": "U",
        "meta_norad_cat_id": 35682,
        "meta_element_set_no": 999,
        "meta_rev_at_epoch": 87691,
        "meta_bstar": 0.0003257187,
        "meta_mean_motion_dot": 2.121e-05,
        "meta_mean_motion_ddot": 0,
        "tle_line1": "1 35682U 09041B   25341.97654245  .00002121  00000+0  32572-3 0  9992",
        "tle_line2": "2 35682  97.9790 112.7267 0009843 331.0361  29.0300 14.74582653876914"
      },
      "geometry": {
        "type": "Point",
        "coordinates": [
          118.13285486798756,
          -32.59265112374702
        ]
      }
    },
    {
      "type": "Feature",
      "properties": {
        "norad_id": 35931,
        "name": "OCEANSAT-2",
        "group": "resource",
        "lat": -79.34569081751742,
        "lon": 33.52758141882669,
        "alt_km": 911.5472030667488,
        "timestamp": "2025-12-08T05:48:08.704314+00:00",
        "meta_object_name": "OCEANSAT-2",
        "meta_object_id": "2009-051A",
        "meta_epoch": "2025-12-07T23:20:12.513984",
        "meta_mean_motion": 13.99625669,
        "meta_eccentricity": 0.00163972,
        "meta_inclination": 98.2226,
        "meta_ra_of_asc_node": 343.0565,
        "meta_arg_of_pericenter": 57.4797,
        "meta_mean_anomaly": 302.7951,
        "meta_ephemeris_type": 0,
        "meta_classification_type": "U",
        "meta_norad_cat_id": 35931,
        "meta_element_set_no": 999,
        "meta_rev_at_epoch": 85258,
        "meta_bstar": -8.5645618e-05,
        "meta_mean_motion_dot": -1.63e-06,
        "meta_mean_motion_ddot": 0,
        "tle_line1": "1 35931U 09051A   25341.97236706 -.00000163  00000+0 -85646-4 0  9995",
        "tle_line2": "2 35931  98.2226 343.0565 0016397  57.4797 302.7951 13.99625669852584"
      },
      "geometry": {
        "type": "Point",
        "coordinates": [
          33.52758141882669,
          -79.34569081751742
        ]
      }
    },
    {
      "type": "Feature",
      "properties": {
        "norad_id": 35946,
        "name": "WORLDVIEW-2 (WV-2)",
        "group": "resource",
        "lat": 36.436330111784464,
        "lon": -120.29066589442876,
        "alt_km": 762.0937148270386,
        "timestamp": "2025-12-08T05:48:08.704325+00:00",
        "meta_object_name": "WORLDVIEW-2 (WV-2)",
        "meta_object_id": "2009-055A",
        "meta_epoch": "2025-12-07T22:27:30.825216",
        "meta_mean_motion": 14.37649276,
        "meta_eccentricity": 0.00053888,
        "meta_inclination": 98.4765,
        "meta_ra_of_asc_node": 53.087,
        "meta_arg_of_pericenter": 78.4252,
        "meta_mean_anomaly": 281.754,
        "meta_ephemeris_type": 0,
        "meta_classification_type": "U",
        "meta_norad_cat_id": 35946,
        "meta_element_set_no": 999,
        "meta_rev_at_epoch": 84816,
        "meta_bstar": 0.00012503417,
        "meta_mean_motion_dot": 3.32e-06,
        "meta_mean_motion_ddot": 0,
        "tle_line1": "1 35946U 09055A   25341.93577344  .00000332  00000+0  12503-3 0  9994",
        "tle_line2": "2 35946  98.4765  53.0870 0005388  78.4252 281.7540 14.37649276848166"
      },
      "geometry": {
        "type": "Point",
        "coordinates": [
          -120.29066589442876,
          36.436330111784464
        ]
      }
    }
  ]
}